COSMOS 2434 (721)       
1 32393U 07065A   26178.19052823  .00000101  00000+0  00000+0 0  9992
2 32393  64.3185 191.5785 0001243 326.9302 245.4349  2.13101370143984
COSMOS 2436 (723)       
1 32395U 07065C   26177.50729759  .00000105  00000+0  00000+0 0  9991
2 32395  64.3272 191.6738 0017278 353.6044 186.8858  2.13100188143920
COSMOS 2456 (730)       
1 36111U 09070A   26176.78374925 -.00000065  00000+0  00000+0 0  9995
2 36111  65.0164  70.6784 0004249 334.9853  36.3390  2.13103651128616
COSMOS 2460 (732)       
1 36402U 10007C   26178.22930437 -.00000082  00000+0  00000+0 0  9996
2 36402  65.4142 314.1261 0002031 121.7117  47.8769  2.13101740126945
COSMOS 2476 (744)       
1 37867U 11064A   26173.36699142 -.00000061  00000+0  00000+0 0  9998
2 37867  65.2731  72.6963 0022606 238.5611 299.8582  2.13103651113877
COSMOS 2477 (745)       
1 37868U 11064B   26178.29302987 -.00000051  00000+0  00000+0 0  9993
2 37868  65.2822  72.6094 0019400 238.8969 298.9395  2.13102995113974
COSMOS 2475 (743)       
1 37869U 11064C   26178.34757091 -.00000051  00000+0  00000+0 0  9990
2 37869  65.2890  72.6291 0025236 252.4316 282.3268  2.13101874113983
COSMOS 2485 (747)       
1 39155U 13019A   26178.23371623 -.00000052  00000+0  00000+0 0  9994
2 39155  65.4252  73.2671 0022910 232.8969 126.9354  2.13103295102490
COSMOS 2492 (754)       
1 39620U 14012A   26174.90776451 -.00000082  00000+0  00000+0 0  9996
2 39620  65.2933 313.7069 0010214 323.0851  36.8355  2.13103141 95380
COSMOS 2500 (755)       
1 40001U 14032A   26177.89294639 -.00000083  00000+0  00000+0 0  9998
2 40001  65.2261 313.3519 0007742 186.1221 173.8575  2.13105995 93660
COSMOS 2514 (751)       
1 41330U 16008A   26177.67036023 -.00000084  00000+0  00000+0 0  9997
2 41330  65.0155 312.6811 0011642 199.0103 160.9356  2.13102793 80820
COSMOS 2522 (752)       
1 42939U 17055A   26175.16181676  .00000104  00000+0  00000+0 0  9995
2 42939  64.0776 191.6387 0008409 235.5259 124.4452  2.13101107 68121
COSMOS 2527 (756)       
1 43508U 18053A   26177.00066066 -.00000062  00000+0  00000+0 0  9991
2 43508  65.5828  73.6132 0006873 236.8993 123.0709  2.13102108 62460
COSMOS 2529 (757)       
1 43687U 18086A   26177.09708310  .00000106  00000+0  00000+0 0  9997
2 43687  64.2953 192.2935 0012114 256.4695 103.4491  2.13102017 59470
